ORBCOMM FM06            
1 25118U 97084G   26160.12865578  .00001153  00000+0  34963-3 0  9999
2 25118  45.0138  91.5055 0001849 306.1714  72.9851 14.47542159493223
ORBCOMM FM04            
1 25159U 98007C   26160.73029995  .00000806  00000+0  32154-3 0  9996
2 25159 107.9625 154.0720 0041097 337.6133  22.3213 14.35727585475523
ORBCOMM FM19            
1 25415U 98046C   26159.60637546  .00000874  00000+0  32314-3 0  9998
2 25415  44.9944 284.3488 0004317 247.3219 131.3998 14.39482707455545
ORBCOMM FM20            
1 25416U 98046D   26160.64907344  .00000604  00000+0  24409-3 0  9998
2 25416  44.9949 287.2320 0001817 224.9920 135.0781 14.38056623455702
ORBCOMM FM27            
1 25481U 98053G   26159.85726768  .00000907  00000+0  33612-3 0  9990
2 25481  45.0065  14.9171 0000244 122.8540 237.2333 14.39126061449033
ORBCOMM FM32            
1 25982U 99065C   26160.43511815  .00000473  00000+0  20505-3 0  9996
2 25982  45.0140 209.9341 0004996 355.0899   4.9899 14.37121453385979
ORBCOMM FM109           
1 40086U 14040A   26160.63314336  .00000467  00000+0  13511-3 0  9991
2 40086  47.0021 127.2013 0001717 225.3515 134.7231 14.58837030633247
ORBCOMM FM114           
1 41179U 15081A   26160.37647890  .00000419  00000+0  12488-3 0  9995
2 41179  47.0059  38.9321 0001986 175.0900 185.0006 14.58849522556612
ORBCOMM FM110           
1 41182U 15081D   26160.36498184  .00000649  00000+0  17357-3 0  9993
2 41182  47.0029  38.4278 0002811  30.7544 329.3506 14.58868027556482
ORBCOMM FM118           
1 41183U 15081E   26159.37192238  .00002733  00000+0  61393-3 0  9999
2 41183  47.0109  43.4533 0003135 338.0740  22.0011 14.58872980556441
ORBCOMM FM112           
1 41184U 15081F   26160.67787437  .00000580  00000+0  15886-3 0  9990
2 41184  47.0001 305.7562 0003284 184.8745 175.2109 14.58893042557853
ORBCOMM FM113           
1 41185U 15081G   26160.10637007  .00000392  00000+0  11906-3 0  9996
2 41185  47.0018 308.8310 0001810 192.4742 167.6099 14.58849888557753
ORBCOMM FM108           
1 41187U 15081J   26159.93185668  .00000511  00000+0  14433-3 0  9999
2 41187  47.0040 221.2288 0002531 186.7177 173.3675 14.58862719558877
ORBCOMM FM117           
1 41188U 15081K   26160.44524337  .00000397  00000+0  12031-3 0  9992
2 41188  47.0001 217.4377 0003073 191.7744 168.3070 14.58859030558997
ORBCOMM FM116           
1 41189U 15081L   26160.69971658  .00000607  00000+0  16451-3 0  9996
2 41189  47.0034 306.0240 0000996  13.5238 346.5674 14.58871822557844
